SAUDISAT 1C (SO-50)     
1 27607U 02058C   26169.36907802  .00000788  00000+0  11046-3 0  9993
2 27607  64.5511 125.3282 0075194 262.2562  97.0002 14.83049237264630
SAUDISAT 2              
1 28371U 04025F   26169.74618882  .00000180  00000+0  51261-4 0  9997
2 28371  98.5507 169.7684 0023544 293.2408  66.6310 14.56684653165972
SAUDISAT 3              
1 31118U 07012B   26169.75473625  .00000194  00000+0  39498-4 0  9997
2 31118  98.1456 120.1564 0013731 218.5452 141.4775 14.71426372 27971
PISAT                   
1 41784U 16059B   26169.71067149  .00000658  00000+0  11973-3 0  9996
2 41784  97.8178 170.0980 0028518 197.7841 162.2369 14.68985598519964
FLYING LAPTOP           
1 42831U 17042G   26169.85196198  .00002932  00000+0  23235-3 0  9996
2 42831  97.4694 325.3204 0019612 116.1799 244.1446 15.01155413486707
SALSAT                  
1 46495U 20068K   26169.45370448  .00006100  00000+0  21401-3 0  9990
2 46495  97.8850 172.5954 0007987 302.8690  57.1780 15.29814902315557
